MALLIGYONG-1            
1 58400U 23179A   24163.19527147  .00007286  00000+0  33160-3 0  9999
2 58400  97.4041  50.1476 0001921 153.5964 206.5370 15.20999419 30817
